#dP2020  9 11  0  0  0.00000000     289 d+D   IGb14 FIT AIUB
## 2122 432000.00000000   300.00000000 59103 0.0000000000000
+   90   G01G02G03G04G05G06G07G08G09G10G11G12G13G15G16G17G18
+        G19G20G21G22G23G24G25G26G27G28G29G30G31G32R01R02R03
+        R04R05R07R08R11R12R13R14R15R16R17R18R19R20R21R22R23
+        R24R26E01E02E03E04E05E07E08E09E11E12E13E14E15E18E19
+        E21E24E25E26E27E30E31E33E36C06C07C08C09C10C11C12C13
+        C14C16J01J02J03  0  0  0  0  0  0  0  0  0  0  0  0
++         5  5  5  5  5  5  5  5  5  5  5  5  5  5  5  5  5
++         5  5  5  5  5  5  5  5  5  5  5  5  5  5  6  5  5
++         5  5  5  5  5  5  5  5  5  5  5  5  5  5  5  5  5
++         5  5  5  5  5  5  5  5  5  5  5  5  5  5  5  5  5
++         5  5  5  5  5  5  5  5  5  5  5  5  5  5  5  5  5
++         5  5  5  5  5  0  0  0  0  0  0  0  0  0  0  0  0
%c M  cc GPS ccc cccc cccc cccc cccc ccccc ccccc ccccc ccccc
%c cc cc ccc ccc cccc cccc cccc cccc ccccc ccccc ccccc ccccc
%f  1.2500000  1.025000000  0.00000000000  0.000000000000000
%f  0.0000000  0.000000000  0.00000000000  0.000000000000000
%i    0    0    0    0      0      0      0      0         0
%i    0    0    0    0      0      0      0      0         0
/* Center for Orbit Determination in Europe (CODE)                              
/* MGEX orbits and clocks for year-day 2020-2550                                
/* Middle day of a 3-day long-arc multi-GNSS solution                           
/* Systems considered: GPS/GLONASS/Galileo/BeiDou/QZSS                          
/* Product reference - DOI 10.7892/boris.75882.3                                
/* PCV:IGS14      OL/AL:FES2014b NONE     YN ORB:CoN CLK:CoN                    
*  2020  9 11  1  5  0.00000000
PG01 -21028.159476 -13158.894729   9700.431993     36.084562
PG02  12173.554249  21392.478775  10664.995905   -514.738991
PG03 -14470.622076  -4143.024217  21804.505183   -295.607008
PG04 -24868.729888  -1597.927586   9250.292112   -134.560628
PG05   4052.040294  22425.901118 -13634.093256    -20.817780
PG06   -790.405357  18136.504689  19424.500593   -324.532522
PG07 -17027.650410   2541.525694 -20024.971628   -369.825850
PG08 -18284.352971  -7904.085934 -17686.294103    -47.525565
PG09 -25267.893154   7943.425708  -2139.530029   -284.168958
PG10  11643.367405 -22721.700676  -6744.098564   -451.390079
PG11 -22882.183415 -12289.933116  -5047.136375   -167.782006
PG12  13259.016999   6591.613796  21821.513463     68.853595
PG13   9615.411276  13474.395958 -20919.247057     44.120383
PG15  19742.061777   6551.612684 -17055.527114   -204.520925
PG16  -3081.132296 -21025.901709 -15856.453446   -207.466201
PG17 -14640.465996  14275.097072  17355.028907    324.123741
PG18  16090.443772  -3681.477422 -20831.357206    287.863186
PG19  -7682.054552  14726.963033  20417.149904   -106.535100
PG20  14819.439124 -14124.808466 -16868.799965    526.778554
PG21 -11121.107720 -21140.631543 -11223.572953     45.759943
PG22 -12597.232600 -12506.311275  19997.391324   -755.691795
PG23  15242.744167 -15659.529522 -15117.734480     63.432514
PG24  21832.768105  13997.288419   6379.247500    -18.418598
PG25  16228.663736  -6478.156149  19688.290148     47.378800
PG26   4323.979493 -25875.179903  -3277.216748    276.718801
PG27  -6994.139610 -13532.809096 -21933.194562   -392.676085
PG28 -12502.721172  23008.754120  -4316.788402    680.107115
PG29  26317.702476  -3648.825067    929.566177   -192.098930
PG30  -9559.919243  12689.291930 -21213.292797   -299.420785
PG31   -173.450040 -19271.978193  18021.918983    -67.913666
PG32  13144.071173 -15552.549431  17057.875933    344.699941
PR01  17276.448329  -4244.196047 -18289.076646     67.376135
PR02  18595.235192 -17394.741867    896.543550    445.029309
PR03   7489.573058 -17678.272031  16803.824007     21.778035
PR04  -7542.461982  -7794.385766  23109.409153     54.116402
PR05 -18464.915954   6381.772975  16420.140110     57.334960
PR07  -7119.484740  17513.570182 -17115.177756    -40.035677
PR08   7583.633237   7883.409176 -22993.673836    -54.511848
PR11  10689.924771  19424.449990  12587.704044    -37.226091
PR12  11733.138093   3731.981461  22376.297621    162.761525
PR13   6200.894394 -14846.569437  19787.913467    -43.690731
PR14  -2889.382982 -24784.116734   5366.388188     55.394098
PR15 -10213.374666 -20161.244865 -11803.752595    106.963873
PR16 -11836.172427  -2532.798066 -22451.859510     -6.233250
PR17  -2728.513257 -11642.075447 -22519.698951    357.084677
PR18 -18619.142377 -12038.957844 -12640.671136     48.914243
PR19 -24301.935835  -6931.222001   3415.010865   -110.679448
PR20 -15556.119322   3872.394260  19856.288559   -421.496965
PR21   3904.045100  11820.989381  22266.607594   -151.331058
PR22  19311.110943  11853.734118  11611.066900    -72.334855
PR23  23113.005378   2687.947680 -10473.834852    331.140216
PR24  15042.061557  -4785.235415 -20032.332628     12.835877
PR26 -19406.690745   1387.329205  16483.261685   -362.189676
PE01  12261.160489  18383.016931  19702.680711   -938.201182
PE02 -12297.696048 -18288.059728 -19749.560750    160.748930
PE03 -17746.884845  -8484.262905  22111.537122   -341.496276
PE04  27349.949369  -6940.505304  -8948.552996   -604.599570
PE05   2380.967947 -19123.921887  22469.268652   -347.148804
PE07 -20949.464509  18509.166260  -9707.082628   -434.457840
PE08 -27296.515909   7333.861693   8764.441806   6122.405720
PE09  20796.790648 -18631.825160   9856.374780   5934.893070
PE11  11694.868965 -11711.417038 -24550.468673   5420.433800
PE12  25243.069548   4392.844940 -14817.851893   5611.667110
PE13 -11860.819735  11500.437975  24560.561794    403.593094
PE14 -26157.892350   3633.360963  -1006.953236  -1151.491920
PE15 -25176.539132  -4185.347901  14990.774146    852.980916
PE18  23709.962765 -14704.304252 -13291.726491  -1258.524300
PE19  15811.538732   9931.087656 -22965.679854     75.407803
PE21   1206.354370  29313.689661   3914.909819   -620.740174
PE24  11211.331226 -23038.372701  14807.940382   5250.568580
PE25  -1088.103851 -29343.619349  -3740.482666   -516.428642
PE26   8769.102026  20679.921271  19283.174964   2740.555940
PE27 -10854.819833  23407.305830 -14495.803295    136.729431
PE30 -16563.067262   3079.674059 -24338.243703   3594.493360
PE31  16485.143495  -3780.410353  24308.401732   -474.051817
PE33  23694.831178  17415.896113   3394.112593   -462.865688
PE36  -8407.485140 -20423.667779 -19703.819608    509.089314
PC06 -21775.196734  22165.111428 -28270.811190    243.687736
PC07 -17994.539230  37511.799883  -4498.349513     -1.677102
PC08  -4898.711792  26303.701348  32777.541479   -515.305793
PC09  -5571.595976  24319.329293 -33768.408665    802.052612
PC10  -7795.625991  40379.183782   8360.668216   -189.784250
PC11 -27004.969578    727.107137   6927.871804   -612.876286
PC12 -23464.832917 -10340.894105 -10933.574391    504.936815
PC13   6691.868753  34343.399928  23806.092669    641.007962
PC14 -20851.011703   9148.088108  16115.230235    259.004220
PC16 -17102.975883  23137.397207 -30785.783816   -589.137393
PJ01 -33895.339655  25097.918260   5078.278397   -348.139030
PJ02 -20289.673888  27411.901372 -20292.818132     -3.515189
PJ03 -29963.046265  24022.843731  22416.361571     -1.025048
EOF
